VELOX-CI                
1 41166U 15077A   23092.72423408  .00009465  00000+0  46179-3 0  9997
2 41166  14.9818 232.7215 0010340 109.0172 251.1269 15.14458125403178
KENT RIDGE 1            
1 41167U 15077B   23092.82796243  .00005363  00000+0  26836-3 0  9990
2 41167  14.9818 258.1673 0010666  63.1849 336.7298 15.11515728403072
ATHENOXAT 1             
1 41168U 15077C   23092.26670920  .00112027  00000+0  25106-2 0  9996
2 41168  15.0093  89.8177 0001879 219.7614 249.8437 15.41558647404523
TELEOS 1                
1 41169U 15077D   23092.65340630  .00015637  00000+0  72397-3 0  9996
2 41169  14.9782 216.1800 0009246 136.7551 223.3506 15.17298885403430
GALASSIA                
1 41170U 15077E   23090.31190016  .00061358  00000+0  18387-2 0  9999
2 41170  14.9872 103.8307 0007093 359.6378   0.3940 15.32633729404227
VELOX-II                
1 41171U 15077F   23092.83788361  .00025054  00000+0  96564-3 0  9992
2 41171  14.9897 177.2482 0006960 196.2598 163.7501 15.24051237403736
DAMPE                   
1 41173U 15078A   23092.88157662  .00002615  00000+0  10664-3 0  9999
2 41173  97.4019  84.7726 0011522 260.2711 166.4497 15.25283970405684
GSAT0209 (GALILEO 12)   
1 41174U 15079A   23090.28594623  .00000029  00000+0  00000+0 0  9991
2 41174  55.2432 133.5149 0004888 299.7778  60.2507  1.70474907 44763
GSAT0208 (GALILEO 11)   
1 41175U 15079B   23092.26524967  .00000046  00000+0  00000+0 0  9995
2 41175  55.2419 133.4586 0004288 297.9718  62.0717  1.70474865 45218
ORBCOMM FM114           
1 41179U 15081A   23092.49492353  .00001256  00000+0  32277-3 0  9999
2 41179  47.0020 128.0546 0002872 252.0132 108.0439 14.55626481386854
ORBCOMM FM110           
1 41182U 15081D   23092.81545908  .00001131  00000+0  29466-3 0  9992
2 41182  47.0007 125.9975 0000646  49.6916 310.4024 14.55594701386771
ORBCOMM FM118           
1 41183U 15081E   23092.79242045  .00001178  00000+0  30512-3 0  9991
2 41183  47.0028 126.3291 0000616  45.8853 314.2082 14.55635276386876
ORBCOMM FM112           
1 41184U 15081F   23092.84796473  .00001453  00000+0  36800-3 0  9999
2 41184  47.0007  34.8650 0002338 301.7876  58.2780 14.55569136388107
ORBCOMM FM113           
1 41185U 15081G   23092.34401484  .00001533  00000+0  38626-3 0  9997
2 41185  47.0027  37.4251 0001956 311.1801  48.8915 14.55555233388012
ORBCOMM FM115           
1 41186U 15081H   23092.82306255  .00001525  00000+0  35374-3 0  9999
2 41186  46.9989 264.4507 0000927 302.3420  57.7376 14.59513933389870
ORBCOMM FM108           
1 41187U 15081J   23092.84904785  .00001399  00000+0  35533-3 0  9990
2 41187  47.0054 306.1401 0002488 220.1652 139.9049 14.55622339389238
ORBCOMM FM117           
1 41188U 15081K   23092.88347041  .00001389  00000+0  35343-3 0  9999
2 41188  47.0017 305.0089 0003206 235.0300 125.0284 14.55580768389283
ORBCOMM FM116           
1 41189U 15081L   23092.87114175  .00001547  00000+0  39004-3 0  9993
2 41189  47.0036  34.8322 0002833 311.3717  48.6923 14.55484616388090
EXPRESS-AMU1            
1 41191U 15082A   23092.84355081  .00000153  00000+0  00000+0 0  9999
2 41191   0.0228 197.9384 0003287 155.3708 177.3894  1.00268658 26520
GAOFEN 4                
1 41194U 15083A   23092.88729904 -.00000337  00000+0  00000+0 0  9991
2 41194   0.0611 302.5236 0003022 282.5048  31.0179  1.00269007 26785
BELINTERSAT-1           
1 41238U 16001A   23092.88574747  .00000105  00000+0  00000+0 0  9996
2 41238   0.0278  38.9009 0000509 127.8466  34.5497  1.00271582 26493
JASON-3                 
1 41240U 16002A   23092.90367286 -.00000045  00000+0  70026-4 0  9995
2 41240  66.0429  47.8771 0007976 273.9923  86.0181 12.80927927336988
IRNSS-1E                
1 41241U 16003A   23092.88729904 -.00000270  00000+0  00000+0 0  9993
2 41241  30.6316  80.1420 0018848 185.7020 356.2836  1.00277819 26332
EUTELSAT 9B             
1 41310U 16005A   23092.85465932  .00000060  00000+0  00000+0 0  9993
2 41310   0.0657  69.5489 0002934 261.8135 176.2290  1.00273712 26372
NAVSTAR 76 (USA 266)    
1 41328U 16007A   23092.70028087  .00000053  00000+0  00000+0 0  9996
2 41328  54.9731 135.9908 0069859 233.6812 125.7530  2.00557253 52342
COSMOS 2514 [GLONASS-M] 
1 41330U 16008A   23092.07155912 -.00000074  00000+0  00000+0 0  9992
2 41330  65.5405 352.9322 0008010 216.0720 143.9143  2.13102772 55641
KMS 4                   
1 41332U 16009A   23092.74828651  .00127652  00000+0  11527-2 0  9996
2 41332  97.2072 174.2495 0008680 332.3536  27.7263 15.67685763400668
SENTINEL-3A             
1 41335U 16011A   23092.90733491  .00000272  00000+0  13060-3 0  9990
2 41335  98.6276 161.0474 0001024 102.9450 257.1845 14.26739348371041
HORYU-4                 
1 41340U 16012D   23092.89994441  .00009311  00000+0  60454-3 0  9991
2 41340  31.0044 307.1785 0011178 209.5031 150.4976 15.06724123391359
SES-9                   
1 41380U 16013A   23092.70100793 -.00000348  00000+0  00000+0 0  9994
2 41380   0.0176 267.9735 0001834 139.1314 144.3299  1.00271768 25695
EUTELSAT 65 WEST A      
1 41382U 16014A   23092.79085797 -.00000278  00000+0  00000+0 0  9994
2 41382   0.0240   6.1645 0002146  10.4048  33.8254  1.00269508 25797
IRNSS-1F                
1 41384U 16015A   23092.84355081  .00000160  00000+0  00000+0 0  9998
2 41384   2.6310 137.7233 0021546 193.9978 195.3785  1.00274794 25924
RESURS P3               
1 41386U 16016A   23092.88134261  .00030469  00000+0  30899-3 0  9998
2 41386  97.1746 179.3470 0012041 100.0012 260.2607 15.65097296395078
COSMOS 2515             
1 41394U 16020A   23092.87071708  .00002985  00000+0  23932-3 0  9999
2 41394  97.9263  58.7976 0030027 285.4526  74.3411 15.00580098384321
BEIDOU-2 IGSO-6         
1 41434U 16021A   23092.84771664 -.00000141  00000+0  00000+0 0  9990
2 41434  58.5280  49.8458 0048037 226.4274 315.7389  1.00269283 25737
E-ST@R-II               
1 41459U 16025D   23092.78843315  .00036766  00000+0  11918-2 0  9991
2 41459  98.1924 286.6879 0115992   1.0985 120.0047 15.25535228381389
AAUSAT 4                
1 41460U 16025E   23092.57952521  .00095893  00000+0  19589-2 0  9998
2 41460  98.1697 296.6808 0079921 322.6488 101.7239 15.42378699382063
MVL-300                 
1 41464U 16026A   23092.87852031  .00052706  00000+0  10361-2 0  9996
2 41464  97.0088 312.9990 0008346 189.4456 226.7620 15.47080662387455
AIST-2D (RS-48)         
1 41465U 16026B   23092.91102053  .00032272  00000+0  50004-3 0  9999
2 41465  97.0102 325.6948 0008492 142.6160 228.5142 15.53925209388263
IRNSS-1G                
1 41469U 16027A   23092.90126281 -.00000335  00000+0  00000+0 0  9995
2 41469   2.5349 139.7696 0006938 289.8607 215.2768  1.00269532 25439
JCSAT-2B                
1 41471U 16028A   23092.90614404 -.00000167  00000+0  00000+0 0  9991
2 41471   0.0200 164.4771 0001091 208.1163 298.5836  1.00270879 25375
YAOGAN-30               
1 41473U 16029A   23092.77254424  .00001518  00000+0  22612-3 0  9998
2 41473  98.0698 139.8981 0018646  38.6511 321.6028 14.76261087370834
GSAT0211 (GALILEO 14)   
1 41549U 16030A   23090.03942378  .00000016  00000+0  00000+0 0  9998
2 41549  55.6005 254.0001 0003390   6.4766 353.4925  1.70473840 42654
GSAT0210 (GALILEO 13)   
1 41550U 16030B   23092.09067793  .00000013  00000+0  00000+0 0  9994
2 41550  55.5941 253.9452 0001526 337.5934  22.3583  1.70473850 42682
THAICOM 8               
1 41552U 16031A   23092.86438252 -.00000124  00000+0  00000+0 0  9998
2 41552   0.0605  35.4088 0005028   1.9912 183.2426  1.00272800 24973
COSMOS 2516 [GLONASS-M] 
1 41554U 16032A   23089.37496599  .00000015  00000+0  00000+0 0  9999
2 41554  63.8797 231.5265 0014461 212.3385 147.5464  2.13106456 53192
ZIYUAN 3-2 (ZY 3-2)     
1 41556U 16033A   23092.81968553  .00013247  00000+0  59843-3 0  9993
2 41556  97.4989 166.1600 0001598  63.1389  58.4706 15.21086192379893
NUSAT-1 (FRESCO)        
1 41557U 16033B   23092.81931025  .00071291  00000+0  12417-2 0  9996
2 41557  97.3825 198.2558 0007034  62.0176  53.7730 15.50486429381913
NUSAT-2 (BATATA)        
1 41558U 16033C   23092.82071779  .00080079  00000+0  12810-2 0  9990
2 41558  97.4093 205.7243 0006370  44.6428  74.0334 15.52847745382231
COSMOS 2517 (GEO-IK 2)  
1 41579U 16034A   23092.94457174  .00000057  00000+0  88107-4 0  9996
2 41579  99.2156 106.6215 0000996 107.1197 253.0072 13.85897710345393
INTELSAT 31 (IS-31)     
1 41581U 16035A   23091.55014760 -.00000155  00000+0  00000+0 0  9997
2 41581   0.0199 234.4499 0002132 338.3690  79.8065  1.00271197 24936
BEIDOU-2 G7             
1 41586U 16037A   23092.88729904 -.00000355  00000+0  00000+0 0  9996
2 41586   1.5187  65.0963 0009592 346.4354 209.4046  1.00273746 25047
ABS-2A (MONGOLSAT-1)    
1 41588U 16038A   23092.89036720 -.00000086  00000+0  00000+0 0  9998
2 41588   0.0112 175.0991 0001762  99.3425 311.7871  1.00269678 24960
EUTELSAT 117 WEST B     
1 41589U 16038B   23092.19374309 -.00000015  00000+0  00000+0 0  9992
2 41589   0.0232  45.3745 0000170 278.9961 178.6429  1.00271598 24921
BRISAT                  
1 41591U 16039A   23092.90544671 -.00000198  00000+0  00000+0 0  9998
2 41591   0.0197 233.8825 0002173 132.4827 301.0696  1.00271609 24861
ECHOSTAR 18             
1 41592U 16039B   23091.93118803 -.00000286  00000+0  00000+0 0  9993
2 41592   0.0243 181.0881 0001477 184.6122  98.2019  1.00268350 24877
CARTOSAT-2C             
1 41599U 16040A   23092.82357189  .00008216  00000+0  39220-3 0  9993
2 41599  97.4443 154.1996 0013706 248.6606 223.1131 15.19234041375867
SKYSAT-C1               
1 41601U 16040C   23092.73524637  .00024548  00000+0  58934-3 0  9990
2 41601  97.1191 165.6262 0001786 123.3368 236.8050 15.41348845378485
GHGSAT-D                
1 41602U 16040D   23092.89496318  .00018923  00000+0  58669-3 0  9997
2 41602  97.1659 134.2504 0007884 170.5196 189.6197 15.33430798376894
